[{"OBJECT_NAME":"OBJECT J","OBJECT_ID":"2023-085J","EPOCH":"2026-03-09T22:47:59.920512","MEAN_MOTION":15.31507187,"ECCENTRICITY":0.00067028,"INCLINATION":97.4828,"RA_OF_ASC_NODE":180.1819,"ARG_OF_PERICENTER":41.7877,"MEAN_ANOMALY":318.3875,"EPHEMERIS_TYPE":0,"CLASSIFICATION_TYPE":"U","NORAD_CAT_ID":57012,"ELEMENT_SET_NO":999,"REV_AT_EPOCH":15156,"BSTAR":0.00064525349,"MEAN_MOTION_DOT":0.00019595,"MEAN_MOTION_DDOT":0},{"OBJECT_NAME":"STARLINK-32028","OBJECT_ID":"2024-117E","EPOCH":"2026-03-09T22:25:40.172736","MEAN_MOTION":15.30192027,"ECCENTRICITY":0.00011231,"INCLINATION":53.1623,"RA_OF_ASC_NODE":36.0112,"ARG_OF_PERICENTER":94.0007,"MEAN_ANOMALY":266.1122,"EPHEMERIS_TYPE":0,"CLASSIFICATION_TYPE":"U","NORAD_CAT_ID":60095,"ELEMENT_SET_NO":999,"REV_AT_EPOCH":9692,"BSTAR":4.356212e-5,"MEAN_MOTION_DOT":9.31e-6,"MEAN_MOTION_DDOT":0}]
